IRIDIUM 119             
1 42959U 17061E   24176.46438308  .00000060  00000+0  14194-4 0  9998
2 42959  86.3973 327.2728 0002030  99.1950 260.9476 14.34217837351223
IRIDIUM 107             
1 42960U 17061F   24176.48341106  .00000271  00000+0  89729-4 0  9991
2 42960  86.3973 327.2817 0002178  98.4423 261.7019 14.34218689351233
IRIDIUM 132             
1 42961U 17061G   24176.48975429  .00000022  00000+0  66638-6 0  9993
2 42961  86.3972 327.2638 0002336  99.2613 260.8847 14.34217635351239
IRIDIUM 136             
1 42962U 17061H   24176.45169617  .00000307  00000+0  10246-3 0  9992
2 42962  86.3971 327.2826 0001839  97.6308 262.5097 14.34218309351244
IRIDIUM 139             
1 42963U 17061J   24176.45804086  .00000126  00000+0  38023-4 0  9992
2 42963  86.3975 327.3303 0002306 102.7528 257.3926 14.34218004351258
IRIDIUM 125             
1 42964U 17061K   24176.51512325  .00000041  00000+0  77564-5 0  9992
2 42964  86.3976 327.3545 0001937 104.7023 255.4388 14.34217736351273
IRIDIUM 135             
1 43070U 17083A   24176.27994315  .00000285  00000+0  94688-4 0  9996
2 43070  86.3964 264.1021 0002401  82.8151 277.3318 14.34216454340530
IRIDIUM 138             
1 43071U 17083B   24176.30531385  .00000310  00000+0  10372-3 0  9991
2 43071  86.3954 263.8081 0001942  99.0455 261.0961 14.34218883340529
